CCSDS_OMM_VERS = 2.0
CREATION_DATE  = 
ORIGINATOR     = 

OBJECT_NAME    = CZ-2C R/B
OBJECT_ID      = 2022-132E
CENTER_NAME    = EARTH
REF_FRAME      = TEME
TIME_SYSTEM    = UTC
MEAN_ELEMENT_THEORY = SGP/SGP4

EPOCH          = 2026-01-20T23:02:09.576384
MEAN_MOTION    = 15.57642257
ECCENTRICITY   = .00166072
INCLINATION    = 97.2951
RA_OF_ASC_NODE = 22.9893
ARG_OF_PERICENTER = 267.4868
MEAN_ANOMALY   = 92.4486

EPHEMERIS_TYPE = 0
CLASSIFICATION_TYPE = U
NORAD_CAT_ID   = 54039
ELEMENT_SET_NO = 999
REV_AT_EPOCH   = 18293
BSTAR          = .65782737E-3
MEAN_MOTION_DOT = .49034E-3
MEAN_MOTION_DDOT = 0

CCSDS_OMM_VERS = 2.0
CREATION_DATE  = 
ORIGINATOR     = 

OBJECT_NAME    = GSLV R/B
OBJECT_ID      = 2022-138AN
CENTER_NAME    = EARTH
REF_FRAME      = TEME
TIME_SYSTEM    = UTC
MEAN_ELEMENT_THEORY = SGP/SGP4

EPOCH          = 2026-01-21T12:21:25.917120
MEAN_MOTION    = 14.96384592
ECCENTRICITY   = .002042
INCLINATION    = 87.3841
RA_OF_ASC_NODE = 182.1510
ARG_OF_PERICENTER = 328.6577
MEAN_ANOMALY   = 31.3436

EPHEMERIS_TYPE = 0
CLASSIFICATION_TYPE = U
NORAD_CAT_ID   = 54149
ELEMENT_SET_NO = 999
REV_AT_EPOCH   = 17687
BSTAR          = .58556E-3
MEAN_MOTION_DOT = .6685E-4
MEAN_MOTION_DDOT = 0

CCSDS_OMM_VERS = 2.0
CREATION_DATE  = 
ORIGINATOR     = 

OBJECT_NAME    = XRISM
OBJECT_ID      = 2023-137A
CENTER_NAME    = EARTH
REF_FRAME      = TEME
TIME_SYSTEM    = UTC
MEAN_ELEMENT_THEORY = SGP/SGP4

EPOCH          = 2026-01-20T21:15:39.777120
MEAN_MOTION    = 15.10838831
ECCENTRICITY   = .00080285
INCLINATION    = 31.0008
RA_OF_ASC_NODE = 232.7105
ARG_OF_PERICENTER = 280.9064
MEAN_ANOMALY   = 79.0671

EPHEMERIS_TYPE = 0
CLASSIFICATION_TYPE = U
NORAD_CAT_ID   = 57800
ELEMENT_SET_NO = 999
REV_AT_EPOCH   = 13055
BSTAR          = .69012742E-3
MEAN_MOTION_DOT = .11874E-3
MEAN_MOTION_DDOT = 0

CCSDS_OMM_VERS = 2.0
CREATION_DATE  = 
ORIGINATOR     = 

OBJECT_NAME    = ACS3
OBJECT_ID      = 2024-077B
CENTER_NAME    = EARTH
REF_FRAME      = TEME
TIME_SYSTEM    = UTC
MEAN_ELEMENT_THEORY = SGP/SGP4

EPOCH          = 2026-01-19T20:35:34.278432
MEAN_MOTION    = 13.87295570
ECCENTRICITY   = .00539164
INCLINATION    = 97.2370
RA_OF_ASC_NODE = 331.9399
ARG_OF_PERICENTER = 237.7526
MEAN_ANOMALY   = 121.8405

EPHEMERIS_TYPE = 0
CLASSIFICATION_TYPE = U
NORAD_CAT_ID   = 59588
ELEMENT_SET_NO = 999
REV_AT_EPOCH   = 8742
BSTAR          = -.25632936E-3
MEAN_MOTION_DOT = -.334E-5
MEAN_MOTION_DDOT = 0

CCSDS_OMM_VERS = 2.0
CREATION_DATE  = 
ORIGINATOR     = 

OBJECT_NAME    = SZ-21 MODULE
OBJECT_ID      = 2025-246C
CENTER_NAME    = EARTH
REF_FRAME      = TEME
TIME_SYSTEM    = UTC
MEAN_ELEMENT_THEORY = SGP/SGP4

EPOCH          = 2026-01-21T09:26:38.566752
MEAN_MOTION    = 15.64963547
ECCENTRICITY   = .0002938
INCLINATION    = 41.4762
RA_OF_ASC_NODE = 133.7187
ARG_OF_PERICENTER = 215.6118
MEAN_ANOMALY   = 144.4526

EPHEMERIS_TYPE = 0
CLASSIFICATION_TYPE = U
NORAD_CAT_ID   = 66515
ELEMENT_SET_NO = 999
REV_AT_EPOCH   = 1065
BSTAR          = .45441E-3
MEAN_MOTION_DOT = .458E-3
MEAN_MOTION_DDOT = 0

