CZ-2C R/B               
1 54039U 22132E   26020.95983306  .00049034  00000+0  65783-3 0  9995
2 54039  97.2951  22.9893 0016607 267.4868  92.4486 15.57642257182930
GSLV R/B                
1 54149U 22138AN  26021.51488330  .00006685  00000+0  58556-3 0  9998
2 54149  87.3841 182.1510 0020420 328.6577  31.3436 14.96384592176870
XRISM                   
1 57800U 23137A   26020.88587705  .00011874  00000+0  69013-3 0  9996
2 57800  31.0008 232.7105 0008028 280.9064  79.0671 15.10838831130553
ACS3                    
1 59588U 24077B   26019.85803563 -.00000334  00000+0 -25633-3 0  9994
2 59588  97.2370 331.9399 0053916 237.7526 121.8405 13.87295570 87427
SZ-21 MODULE            
1 66515U 25246C   26021.39350193  .00045800  00000+0  45441-3 0  9993
2 66515  41.4762 133.7187 0002938 215.6118 144.4526 15.64963547 10653
